{
  "norad_id": 36112,
  "name": "COSMOS 2457 [GLONASS-M]",
  "history": [
    {
      "epoch": "2026-03-26T02:13:43.966272",
      "apogee_km": 19134.119700829593,
      "perigee_km": 19125.83007462832,
      "latitude_deg": 57.71559837151365,
      "longitude_deg": 128.11551808007061,
      "semi_major_axis_km": 25508.111887728955,
      "eccentricity": 0.00016249,
      "inclination_deg": 64.9488,
      "raan_deg": 73.6506,
      "arg_perigee_deg": 196.4354,
      "mean_anomaly_deg": 160.5699,
      "mean_motion_rev_day": 2.13100904
    }
  ]
}